{
	"type": "FeatureCollection",
	"features": [
		{
			"type": "Feature",
			"id": 20,
			"geometry": {
				"type": "Polygon",
				"coordinates": [
					[
						[-71.05724099999998, 42.34398100000004],
						[-71.05724699999996, 42.344178000000056],
						[-71.05725499999994, 42.34453700000006],
						[-71.05723699999999, 42.344873000000064],
						[-71.05704499999996, 42.345616000000064],
						[-71.05646999999993, 42.346111000000064],
						[-71.05683199999999, 42.34601300000003],
						[-71.05765399999996, 42.345777000000055],
						[-71.05814299999997, 42.34564700000004],
						[-71.05837399999996, 42.34562000000005],
						[-71.05843099999998, 42.34560200000004],
						[-71.05866299999997, 42.345564000000024],
						[-71.05875699999996, 42.34555400000005],
						[-71.05881999999997, 42.34544500000004],
						[-71.05893399999997, 42.34532000000007],
						[-71.05899699999998, 42.34526800000003],
						[-71.05910599999999, 42.34520500000008],
						[-71.05927099999997, 42.345102000000054],
						[-71.05936799999995, 42.34509500000007],
						[-71.05956099999997, 42.344925000000046],
						[-71.05963999999994, 42.34486000000004],
						[-71.05982099899995, 42.344715000000065],
						[-71.06017799999995, 42.344328000000075],
						[-71.06038699999993, 42.34407900000008],
						[-71.06051699899996, 42.343886000000055],
						[-71.06060899999994, 42.34371800000008],
						[-71.06090600099998, 42.34377500000005],
						[-71.06099099999994, 42.343796000000054],
						[-71.06109699999996, 42.34382300000004],
						[-71.06114699999995, 42.34383500000007],
						[-71.06125699999996, 42.343863000000056],
						[-71.06129299999998, 42.343871000000036],
						[-71.06142399999999, 42.34390300000007],
						[-71.06151999999997, 42.34393000000006],
						[-71.06171599999993, 42.34396400000003],
						[-71.06214799999998, 42.34303700000004],
						[-71.06221499999998, 42.34291500000006],
						[-71.06233899999995, 42.342670000000055],
						[-71.06296799999996, 42.341491000000076],
						[-71.06363199999998, 42.34027000000003],
						[-71.06366499999996, 42.34020600000008],
						[-71.06376399999994, 42.34002700000008],
						[-71.06471699999997, 42.33825800000005],
						[-71.06514299999998, 42.33743800000008],
						[-71.06528999999995, 42.33707400000003],
						[-71.06541399999998, 42.33671500000003],
						[-71.06550899999996, 42.336321000000055],
						[-71.06552999999997, 42.33602900000005],
						[-71.06551499999995, 42.335840000000076],
						[-71.06548199999997, 42.33563300000003],
						[-71.06541399999998, 42.33544100000006],
						[-71.06539900099995, 42.33534600000007],
						[-71.06534399999998, 42.335177000000044],
						[-71.06527599999998, 42.33501200000006],
						[-71.06521399999997, 42.334899000000064],
						[-71.06514999999996, 42.33475100000004],
						[-71.06506999999993, 42.334622000000024],
						[-71.06483899999995, 42.334291000000064],
						[-71.06461299999995, 42.33400900000004],
						[-71.06443999999993, 42.33382100000006],
						[-71.06437100099998, 42.33374800000007],
						[-71.06420399999996, 42.33357100000006],
						[-71.06389099999996, 42.33324200000004],
						[-71.06353399999995, 42.332839000000035],
						[-71.06318899999997, 42.33245100000005],
						[-71.06279799999999, 42.33197300000006],
						[-71.06290499999994, 42.33180600000003],
						[-71.06355299999996, 42.33079100000003],
						[-71.06350499999996, 42.33077700000007],
						[-71.06327999999996, 42.330730000000074],
						[-71.06314199899998, 42.33070900000007],
						[-71.06297499999994, 42.33068300000008],
						[-71.06165699999997, 42.33041500000007],
						[-71.06138299999998, 42.33036700000008],
						[-71.06106099999994, 42.33030800000006],
						[-71.06080199999997, 42.33025300000003],
						[-71.06077599999998, 42.33024800000004],
						[-71.06021899999996, 42.33013500000004],
						[-71.05928799999998, 42.32997300000005],
						[-71.05824099999995, 42.32973400000003],
						[-71.05825299999998, 42.329173000000026],
						[-71.05826500099994, 42.328629000000035],
						[-71.05825099999998, 42.328584000000035],
						[-71.05822100099994, 42.328546000000074],
						[-71.05813299999994, 42.32850300000007],
						[-71.05774899999994, 42.32837600000005],
						[-71.05784499999999, 42.32813900000008],
						[-71.05761599999994, 42.32807500000007],
						[-71.05747099999996, 42.32804600000003],
						[-71.05733499999997, 42.328036000000054],
						[-71.05719899899998, 42.328032000000064],
						[-71.05691499999995, 42.32803500000006],
						[-71.05689799999993, 42.327368000000035],
						[-71.05686799999995, 42.32686700000005],
						[-71.05684999999994, 42.32628900000003],
						[-71.05592799999994, 42.32556500000004],
						[-71.05512599999997, 42.32501400000007],
						[-71.05429499999997, 42.324425000000076],
						[-71.05378699999994, 42.32399400000003],
						[-71.05329399999994, 42.323443000000054],
						[-71.05316199999999, 42.32326800000004],
						[-71.05290399999996, 42.32287000000008],
						[-71.05269799999996, 42.32234600000004],
						[-71.05258100099996, 42.32193200000006],
						[-71.05245599999995, 42.32146600000004],
						[-71.05228700099997, 42.321465000000046],
						[-71.05209299899997, 42.321469000000036],
						[-71.05203699999998, 42.32146400000005],
						[-71.05199399999998, 42.32146000000006],
						[-71.05180899999993, 42.32144400000004],
						[-71.05155199999996, 42.321435000000065],
						[-71.05136799999997, 42.32141000000007],
						[-71.05124999999998, 42.321308000000045],
						[-71.05113299999994, 42.32118800000006],
						[-71.05103499999996, 42.32107000000008],
						[-71.05092499999995, 42.320876000000055],
						[-71.05078699999996, 42.32083000000006],
						[-71.05060399999996, 42.32075800000007],
						[-71.05046799999997, 42.32078800000005],
						[-71.05039999999997, 42.32081500000004],
						[-71.05030900099996, 42.32088700000003],
						[-71.05024399999996, 42.320962000000065],
						[-71.05022699999995, 42.32103100000006],
						[-71.05021299999999, 42.32115500000003],
						[-71.05023399999999, 42.321203000000025],
						[-71.05030899999997, 42.321510000000046],
						[-71.05030699999998, 42.32176800000008],
						[-71.05028300099997, 42.32186400000006],
						[-71.05027799999993, 42.32188400000007],
						[-71.05024399999996, 42.32201700000007],
						[-71.05009199999995, 42.32207400000004],
						[-71.04982999999999, 42.322223000000065],
						[-71.04956399999998, 42.32242700000006],
						[-71.04940599999998, 42.32258200000007],
						[-71.04919499899995, 42.32285200000007],
						[-71.04905099999996, 42.323124000000064],
						[-71.04897799999998, 42.32335900000004],
						[-71.04895599999998, 42.32342900000003],
						[-71.04894599999994, 42.323492000000044],
						[-71.04784099999995, 42.32259200000004],
						[-71.04622699999999, 42.323285000000055],
						[-71.04578899999996, 42.32356100000004],
						[-71.04541399999994, 42.32379800000007],
						[-71.04602299999993, 42.324561000000074],
						[-71.04596699899997, 42.325717000000054],
						[-71.04566499999999, 42.32682300000005],
						[-71.04493999999994, 42.32773000000003],
						[-71.04422500099997, 42.32805100000007],
						[-71.04381299999994, 42.328208000000075],
						[-71.04250699999994, 42.32825800000006],
						[-71.03979399999997, 42.328238000000056],
						[-71.03897799999999, 42.32823900000005],
						[-71.03847899999994, 42.32798600000007],
						[-71.03719699999994, 42.327616000000035],
						[-71.03508699899999, 42.32750000000004],
						[-71.03313299999996, 42.32775400000003],
						[-71.03252100099996, 42.327732000000026],
						[-71.03039900099998, 42.328539000000035],
						[-71.02777899999995, 42.330246000000045],
						[-71.02506499999998, 42.33114600000005],
						[-71.02281800099996, 42.33133000000004],
						[-71.02097799999996, 42.33059200000008],
						[-71.01848199999995, 42.32955400000003],
						[-71.01470699899994, 42.32904600000006],
						[-71.01270999999997, 42.32969200000008],
						[-71.01083800099997, 42.33287500000006],
						[-71.00955899999997, 42.33502000000004],
						[-71.00780099999997, 42.335942000000045],
						[-71.00735299999997, 42.33617300000003],
						[-71.00696799999997, 42.337027000000035],
						[-71.00802899999996, 42.339379000000065],
						[-71.00924499999996, 42.340523000000076],
						[-71.01075699999996, 42.33979900000003],
						[-71.01099199999999, 42.339642000000026],
						[-71.01164099999994, 42.33931000000007],
						[-71.01336599999996, 42.33888700000006],
						[-71.01483899999994, 42.33881900000006],
						[-71.01512599999995, 42.338839000000064],
						[-71.01567700099997, 42.33887400000003],
						[-71.01652499999994, 42.33887100000004],
						[-71.01730999999995, 42.338850000000036],
						[-71.01800499999996, 42.33881700000006],
						[-71.01828299999994, 42.338797000000056],
						[-71.01868699999994, 42.338767000000075],
						[-71.01930999999996, 42.33870200000007],
						[-71.01966999999996, 42.338654000000076],
						[-71.02008999999998, 42.33857700000004],
						[-71.02049499899994, 42.33847200000008],
						[-71.02104499999996, 42.33827700000006],
						[-71.02148899999997, 42.33808300000004],
						[-71.02178799999996, 42.33793900000006],
						[-71.02194699999995, 42.33784700000007],
						[-71.02206600099998, 42.337965000000054],
						[-71.02224899999999, 42.33809100000008],
						[-71.02244899999994, 42.338190000000054],
						[-71.02372199999996, 42.33864600000004],
						[-71.02383999999995, 42.33869200000004],
						[-71.02397999999994, 42.33871300000004],
						[-71.02412899999996, 42.33872100000008],
						[-71.02429000099994, 42.338712000000044],
						[-71.02444299999996, 42.338677000000075],
						[-71.02455099999997, 42.338640000000055],
						[-71.02489599999996, 42.338460000000055],
						[-71.02513299999998, 42.338310000000035],
						[-71.02518599999996, 42.33843500000006],
						[-71.02519399999994, 42.339597000000026],
						[-71.02512499999995, 42.34150900000003],
						[-71.02535299999994, 42.34158200000007],
						[-71.02559999999994, 42.34163600000005],
						[-71.02616999999998, 42.34164800000008],
						[-71.02633999999995, 42.34161400000005],
						[-71.02638699999994, 42.341581000000076],
						[-71.02652699999999, 42.341327000000035],
						[-71.02689699999996, 42.34127100000006],
						[-71.02703499999996, 42.34127300000006],
						[-71.02731199999994, 42.34139800000003],
						[-71.02765099999993, 42.34146000000004],
						[-71.02771299999995, 42.34151300000008],
						[-71.02777399999997, 42.341687000000036],
						[-71.02783499999998, 42.34173100000004],
						[-71.02822099999997, 42.341770000000054],
						[-71.02928499899997, 42.34176000000008],
						[-71.02942399999995, 42.34163600000005],
						[-71.02950199999998, 42.34138200000007],
						[-71.02951699999994, 42.34024700000003],
						[-71.03037199899995, 42.340246000000036],
						[-71.03041399999995, 42.34165400000006],
						[-71.03056899899997, 42.341653000000065],
						[-71.03247799999997, 42.34164000000004],
						[-71.03247999999996, 42.34152300000005],
						[-71.03380299899999, 42.34148600000003],
						[-71.03380099999998, 42.340441000000055],
						[-71.03470999999996, 42.34044800000004],
						[-71.03471099999996, 42.34066400000006],
						[-71.03521599999993, 42.34066400000006],
						[-71.03522499999997, 42.34132100000005],
						[-71.03520799999995, 42.34132100000005],
						[-71.03520599999996, 42.34162800000007],
						[-71.03522199999998, 42.34165900000005],
						[-71.03526799999997, 42.34168500000004],
						[-71.03574599899997, 42.34168400000004],
						[-71.03591499999999, 42.341683000000046],
						[-71.03623899899998, 42.34164100000004],
						[-71.03734599999996, 42.341608000000065],
						[-71.03768799999995, 42.341597000000036],
						[-71.03775099999996, 42.34159600000004],
						[-71.03819500099996, 42.341597000000036],
						[-71.03906600099998, 42.34160000000003],
						[-71.03936399999998, 42.34033400000004],
						[-71.03940999999998, 42.340171000000055],
						[-71.03948599999995, 42.340048000000024],
						[-71.03954199999998, 42.34000600000007],
						[-71.03963300099997, 42.339964000000066],
						[-71.03977599999996, 42.33992500000005],
						[-71.03991699999995, 42.339905000000044],
						[-71.03991799899995, 42.33946800000007],
						[-71.03987099899996, 42.33941900000008],
						[-71.03990299999998, 42.339338000000055],
						[-71.03996599999994, 42.33903000000004],
						[-71.03996799999999, 42.33867900000007],
						[-71.03997699999996, 42.33846700000004],
						[-71.03999900099996, 42.33843600000006],
						[-71.04004199999997, 42.33846600000004],
						[-71.04007999999999, 42.33866400000005],
						[-71.04009000099995, 42.338884000000064],
						[-71.04013499999996, 42.33916700000003],
						[-71.04021099999994, 42.339364000000046],
						[-71.04030299999994, 42.33947900000004],
						[-71.04042599999997, 42.33955800000007],
						[-71.04059599999994, 42.33956900000004],
						[-71.04068799999999, 42.339549000000034],
						[-71.04084299999994, 42.33943400000004],
						[-71.04092099999997, 42.33928400000008],
						[-71.04090600099994, 42.33905400000003],
						[-71.04098299899994, 42.338940000000036],
						[-71.04104599999994, 42.338944000000026],
						[-71.04123699999997, 42.33904700000005],
						[-71.04139899999996, 42.33913600000005],
						[-71.04147600099998, 42.33919300000008],
						[-71.04161399999998, 42.33938800000004],
						[-71.04169099999996, 42.339446000000066],
						[-71.04182999999995, 42.33948400000003],
						[-71.04190599899994, 42.33952700000003],
						[-71.04219199999994, 42.33957700000008],
						[-71.04337299899998, 42.33853000000005],
						[-71.04398199999997, 42.33798800000005],
						[-71.04438299999998, 42.33798000000007],
						[-71.04476899999997, 42.33820500000007],
						[-71.04528499999998, 42.33855500000004],
						[-71.04555899999997, 42.33871800000003],
						[-71.04609399999998, 42.33905100000004],
						[-71.04666399999996, 42.33943400000004],
						[-71.04707199999996, 42.33970100000005],
						[-71.04860299999996, 42.34068400000007],
						[-71.04920199899993, 42.34106900000006],
						[-71.04941999999994, 42.341211000000044],
						[-71.05015899999995, 42.34169300000008],
						[-71.05087499999996, 42.34215000000006],
						[-71.05139500099995, 42.342490000000055],
						[-71.05164199999996, 42.34266500000007],
						[-71.05168999999995, 42.34267600000004],
						[-71.05171499999994, 42.34267600000004],
						[-71.05178299999994, 42.34263800000008],
						[-71.05192399999999, 42.34253000000007],
						[-71.05235699999997, 42.34212300000007],
						[-71.05279799999994, 42.342426000000046],
						[-71.05287099999998, 42.34247600000003],
						[-71.05290199999996, 42.34249600000004],
						[-71.05301299999996, 42.342550000000074],
						[-71.05315200099994, 42.34260100000006],
						[-71.05428899999998, 42.34285900000003],
						[-71.05492099899993, 42.342993000000035],
						[-71.05521499999998, 42.343067000000076],
						[-71.05623899999995, 42.34331800000007],
						[-71.05690299999998, 42.34347400000007],
						[-71.05722600099995, 42.343540000000075],
						[-71.05724099999998, 42.34398100000004]
					]
				]
			},
			"properties": { "blockgr2020_ctr_neighb_name": "South Boston" }
		},
		{
			"type": "Feature",
			"id": 21,
			"geometry": {
				"type": "Polygon",
				"coordinates": [
					[
						[-71.01242799999994, 42.34267200000005],
						[-71.01235699999995, 42.342674000000045],
						[-71.01367799999997, 42.34311800000006],
						[-71.01499899999999, 42.34338400000007],
						[-71.01784099999998, 42.343413000000055],
						[-71.01892100099997, 42.34373900000003],
						[-71.01904099999996, 42.34527700000007],
						[-71.02044199899996, 42.34720000000004],
						[-71.02204299999994, 42.34867900000006],
						[-71.02428499999996, 42.350040000000035],
						[-71.02660600099995, 42.35012800000004],
						[-71.02736699999997, 42.35036500000007],
						[-71.02970099999999, 42.35173300000008],
						[-71.02979499999998, 42.35178900000005],
						[-71.03035499999999, 42.35215400000004],
						[-71.03242199999994, 42.35309100000006],
						[-71.03777399999996, 42.35476900000003],
						[-71.04291399999994, 42.35625200000004],
						[-71.04582799999997, 42.35722700000008],
						[-71.04556399999996, 42.358246000000065],
						[-71.04556599999995, 42.35973300000006],
						[-71.04907299999996, 42.35493900000006],
						[-71.04933299999993, 42.35458500000004],
						[-71.04939599999994, 42.354498000000035],
						[-71.04959499899996, 42.35449700000004],
						[-71.04968499999995, 42.35431100000005],
						[-71.04996099999994, 42.35395600000004],
						[-71.05003899899998, 42.35385500000007],
						[-71.05136099999999, 42.35213300000004],
						[-71.05146100099995, 42.35203300000006],
						[-71.05146299999996, 42.35193200000003],
						[-71.05208499999998, 42.351222000000064],
						[-71.05218800099993, 42.351121000000035],
						[-71.05218599999995, 42.350922000000025],
						[-71.05462699999998, 42.347417000000064],
						[-71.05477099999996, 42.34725300000008],
						[-71.05472099999997, 42.347083000000055],
						[-71.05472299999997, 42.347038000000055],
						[-71.05478799999997, 42.34687100000008],
						[-71.05446899999998, 42.34677800000003],
						[-71.05617199999995, 42.346264000000076],
						[-71.05646999999993, 42.346111000000064],
						[-71.05704499999996, 42.345616000000064],
						[-71.05723699999999, 42.344873000000064],
						[-71.05725499999994, 42.34453700000006],
						[-71.05724699999996, 42.344178000000056],
						[-71.05724099999998, 42.34398100000004],
						[-71.05722600099995, 42.343540000000075],
						[-71.05690299999998, 42.34347400000007],
						[-71.05623899999995, 42.34331800000007],
						[-71.05521499999998, 42.343067000000076],
						[-71.05492099899993, 42.342993000000035],
						[-71.05428899999998, 42.34285900000003],
						[-71.05315200099994, 42.34260100000006],
						[-71.05301299999996, 42.342550000000074],
						[-71.05290199999996, 42.34249600000004],
						[-71.05287099999998, 42.34247600000003],
						[-71.05279799999994, 42.342426000000046],
						[-71.05235699999997, 42.34212300000007],
						[-71.05192399999999, 42.34253000000007],
						[-71.05178299999994, 42.34263800000008],
						[-71.05171499999994, 42.34267600000004],
						[-71.05168999999995, 42.34267600000004],
						[-71.05164199999996, 42.34266500000007],
						[-71.05139500099995, 42.342490000000055],
						[-71.05087499999996, 42.34215000000006],
						[-71.05015899999995, 42.34169300000008],
						[-71.04941999999994, 42.341211000000044],
						[-71.04920199899993, 42.34106900000006],
						[-71.04860299999996, 42.34068400000007],
						[-71.04707199999996, 42.33970100000005],
						[-71.04666399999996, 42.33943400000004],
						[-71.04609399999998, 42.33905100000004],
						[-71.04555899999997, 42.33871800000003],
						[-71.04528499999998, 42.33855500000004],
						[-71.04476899999997, 42.33820500000007],
						[-71.04438299999998, 42.33798000000007],
						[-71.04398199999997, 42.33798800000005],
						[-71.04337299899998, 42.33853000000005],
						[-71.04219199999994, 42.33957700000008],
						[-71.04190599899994, 42.33952700000003],
						[-71.04182999999995, 42.33948400000003],
						[-71.04169099999996, 42.339446000000066],
						[-71.04161399999998, 42.33938800000004],
						[-71.04147600099998, 42.33919300000008],
						[-71.04139899999996, 42.33913600000005],
						[-71.04123699999997, 42.33904700000005],
						[-71.04104599999994, 42.338944000000026],
						[-71.04098299899994, 42.338940000000036],
						[-71.04090600099994, 42.33905400000003],
						[-71.04092099999997, 42.33928400000008],
						[-71.04084299999994, 42.33943400000004],
						[-71.04068799999999, 42.339549000000034],
						[-71.04059599999994, 42.33956900000004],
						[-71.04042599999997, 42.33955800000007],
						[-71.04030299999994, 42.33947900000004],
						[-71.04021099999994, 42.339364000000046],
						[-71.04013499999996, 42.33916700000003],
						[-71.04009000099995, 42.338884000000064],
						[-71.04007999999999, 42.33866400000005],
						[-71.04004199999997, 42.33846600000004],
						[-71.03999900099996, 42.33843600000006],
						[-71.03997699999996, 42.33846700000004],
						[-71.03996799999999, 42.33867900000007],
						[-71.03996599999994, 42.33903000000004],
						[-71.03990299999998, 42.339338000000055],
						[-71.03987099899996, 42.33941900000008],
						[-71.03991799899995, 42.33946800000007],
						[-71.03991699999995, 42.339905000000044],
						[-71.03977599999996, 42.33992500000005],
						[-71.03963300099997, 42.339964000000066],
						[-71.03954199999998, 42.34000600000007],
						[-71.03948599999995, 42.340048000000024],
						[-71.03940999999998, 42.340171000000055],
						[-71.03936399999998, 42.34033400000004],
						[-71.03906600099998, 42.34160000000003],
						[-71.03819500099996, 42.341597000000036],
						[-71.03775099999996, 42.34159600000004],
						[-71.03768799999995, 42.341597000000036],
						[-71.03734599999996, 42.341608000000065],
						[-71.03623899899998, 42.34164100000004],
						[-71.03591499999999, 42.341683000000046],
						[-71.03574599899997, 42.34168400000004],
						[-71.03526799999997, 42.34168500000004],
						[-71.03522199999998, 42.34165900000005],
						[-71.03520599999996, 42.34162800000007],
						[-71.03520799999995, 42.34132100000005],
						[-71.03522499999997, 42.34132100000005],
						[-71.03521599999993, 42.34066400000006],
						[-71.03471099999996, 42.34066400000006],
						[-71.03470999999996, 42.34044800000004],
						[-71.03380099999998, 42.340441000000055],
						[-71.03380299899999, 42.34148600000003],
						[-71.03247999999996, 42.34152300000005],
						[-71.03247799999997, 42.34164000000004],
						[-71.03056899899997, 42.341653000000065],
						[-71.03041399999995, 42.34165400000006],
						[-71.03037199899995, 42.340246000000036],
						[-71.02951699999994, 42.34024700000003],
						[-71.02950199999998, 42.34138200000007],
						[-71.02942399999995, 42.34163600000005],
						[-71.02928499899997, 42.34176000000008],
						[-71.02822099999997, 42.341770000000054],
						[-71.02783499999998, 42.34173100000004],
						[-71.02777399999997, 42.341687000000036],
						[-71.02771299999995, 42.34151300000008],
						[-71.02765099999993, 42.34146000000004],
						[-71.02731199999994, 42.34139800000003],
						[-71.02703499999996, 42.34127300000006],
						[-71.02689699999996, 42.34127100000006],
						[-71.02652699999999, 42.341327000000035],
						[-71.02638699999994, 42.341581000000076],
						[-71.02633999999995, 42.34161400000005],
						[-71.02616999999998, 42.34164800000008],
						[-71.02559999999994, 42.34163600000005],
						[-71.02535299999994, 42.34158200000007],
						[-71.02512499999995, 42.34150900000003],
						[-71.02519399999994, 42.339597000000026],
						[-71.02518599999996, 42.33843500000006],
						[-71.02513299999998, 42.338310000000035],
						[-71.02489599999996, 42.338460000000055],
						[-71.02455099999997, 42.338640000000055],
						[-71.02444299999996, 42.338677000000075],
						[-71.02429000099994, 42.338712000000044],
						[-71.02412899999996, 42.33872100000008],
						[-71.02397999999994, 42.33871300000004],
						[-71.02383999999995, 42.33869200000004],
						[-71.02372199999996, 42.33864600000004],
						[-71.02244899999994, 42.338190000000054],
						[-71.02224899999999, 42.33809100000008],
						[-71.02206600099998, 42.337965000000054],
						[-71.02194699999995, 42.33784700000007],
						[-71.02178799999996, 42.33793900000006],
						[-71.02148899999997, 42.33808300000004],
						[-71.02104499999996, 42.33827700000006],
						[-71.02049499899994, 42.33847200000008],
						[-71.02008999999998, 42.33857700000004],
						[-71.01966999999996, 42.338654000000076],
						[-71.01930999999996, 42.33870200000007],
						[-71.01868699999994, 42.338767000000075],
						[-71.01828299999994, 42.338797000000056],
						[-71.01800499999996, 42.33881700000006],
						[-71.01730999999995, 42.338850000000036],
						[-71.01652499999994, 42.33887100000004],
						[-71.01567700099997, 42.33887400000003],
						[-71.01512599999995, 42.338839000000064],
						[-71.01483899999994, 42.33881900000006],
						[-71.01336599999996, 42.33888700000006],
						[-71.01164099999994, 42.33931000000007],
						[-71.01099199999999, 42.339642000000026],
						[-71.01075699999996, 42.33979900000003],
						[-71.00924499999996, 42.340523000000076],
						[-71.01021299999996, 42.341432000000054],
						[-71.01242799999994, 42.34267200000005]
					]
				]
			},
			"properties": { "blockgr2020_ctr_neighb_name": "South Boston Waterfront" }
		}
	]
}
