{
	"type": "FeatureCollection",
	"features": [
		{
			"type": "Feature",
			"geometry": {
				"type": "Polygon",
				"coordinates": [
					[
						[-71.1415, 42.3463],
						[-71.1378, 42.3439],
						[-71.1343, 42.3466],
						[-71.1364, 42.3504],
						[-71.1415, 42.3463]
					]
				]
			},
			"properties": { "GEOID": "25025000701" }
		},
		{
			"type": "Feature",
			"geometry": {
				"type": "Polygon",
				"coordinates": [
					[
						[-71.1692, 42.3381],
						[-71.1676, 42.3334],
						[-71.1613, 42.3338],
						[-71.157, 42.3304],
						[-71.1473, 42.3372],
						[-71.1523, 42.3372],
						[-71.1514, 42.3404],
						[-71.1546, 42.3412],
						[-71.1692, 42.3381]
					]
				]
			},
			"properties": { "GEOID": "25025000502" }
		},
		{
			"type": "Feature",
			"geometry": {
				"type": "Polygon",
				"coordinates": [
					[
						[-71.154, 42.3479],
						[-71.1512, 42.3458],
						[-71.1504, 42.349],
						[-71.1373, 42.3536],
						[-71.1491, 42.3562],
						[-71.1509, 42.3534],
						[-71.1467, 42.3523],
						[-71.1479, 42.3503],
						[-71.1519, 42.3516],
						[-71.154, 42.3479]
					]
				]
			},
			"properties": { "GEOID": "25025000601" }
		},
		{
			"type": "Feature",
			"geometry": {
				"type": "Polygon",
				"coordinates": [
					[
						[-71.6016, 42.2197],
						[-71.5829, 42.1956],
						[-71.5568, 42.1925],
						[-71.5557, 42.1825],
						[-71.5359, 42.1896],
						[-71.5496, 42.2198],
						[-71.552, 42.2352],
						[-71.5646, 42.2669],
						[-71.5868, 42.2595],
						[-71.6016, 42.2197]
					]
				]
			},
			"properties": { "GEOID": "25017320102" }
		},
		{
			"type": "Feature",
			"geometry": {
				"type": "Polygon",
				"coordinates": [
					[
						[-71.1707, 42.4898],
						[-71.1599, 42.4848],
						[-71.152, 42.4857],
						[-71.1534, 42.4906],
						[-71.1352, 42.4879],
						[-71.1374, 42.4943],
						[-71.1435, 42.4964],
						[-71.1422, 42.5013],
						[-71.1685, 42.4975],
						[-71.1707, 42.4898]
					]
				]
			},
			"properties": { "GEOID": "25017333501" }
		},
		{
			"type": "Feature",
			"geometry": {
				"type": "Polygon",
				"coordinates": [
					[
						[-71.396, 42.4243],
						[-71.3663, 42.4127],
						[-71.3644, 42.4204],
						[-71.3566, 42.4199],
						[-71.3526, 42.4269],
						[-71.3336, 42.4392],
						[-71.3432, 42.449],
						[-71.3581, 42.4573],
						[-71.3592, 42.4597],
						[-71.356, 42.462],
						[-71.358, 42.4654],
						[-71.3637, 42.4659],
						[-71.3628, 42.4706],
						[-71.3776, 42.4713],
						[-71.3923, 42.4645],
						[-71.3891, 42.4499],
						[-71.396, 42.4243]
					]
				]
			},
			"properties": { "GEOID": "25017361100" }
		},
		{
			"type": "Feature",
			"geometry": {
				"type": "Polygon",
				"coordinates": [
					[
						[-71.0001, 42.2454],
						[-70.996, 42.2428],
						[-70.9837, 42.2434],
						[-70.9825, 42.2481],
						[-70.9931, 42.2498],
						[-71.0001, 42.2454]
					]
				]
			},
			"properties": { "GEOID": "25021417902" }
		},
		{
			"type": "Feature",
			"geometry": {
				"type": "Polygon",
				"coordinates": [
					[
						[-71.0682, 42.2713],
						[-71.0622, 42.2672],
						[-71.0537, 42.2718],
						[-71.0547, 42.2803],
						[-71.0589, 42.282],
						[-71.0558, 42.2832],
						[-71.0557, 42.2892],
						[-71.0638, 42.2875],
						[-71.0682, 42.2713]
					]
				]
			},
			"properties": { "GEOID": "25025100800" }
		},
		{
			"type": "Feature",
			"geometry": {
				"type": "Polygon",
				"coordinates": [
					[
						[-70.9912, 42.2678],
						[-70.9861, 42.2656],
						[-70.9864, 42.2621],
						[-70.9801, 42.2614],
						[-70.9825, 42.2543],
						[-70.9788, 42.254],
						[-70.976, 42.2588],
						[-70.9784, 42.2603],
						[-70.9706, 42.2632],
						[-70.9512, 42.255],
						[-70.9381, 42.2664],
						[-70.9377, 42.2775],
						[-70.9604, 42.2877],
						[-70.9912, 42.2678]
					]
				]
			},
			"properties": { "GEOID": "25021417801" }
		},
		{
			"type": "Feature",
			"geometry": {
				"type": "Polygon",
				"coordinates": [
					[
						[-70.9773, 42.2568],
						[-70.9788, 42.254],
						[-70.9602, 42.2468],
						[-70.9512, 42.255],
						[-70.9651, 42.2601],
						[-70.9632, 42.2619],
						[-70.9664, 42.263],
						[-70.9784, 42.2603],
						[-70.9773, 42.2568]
					]
				]
			},
			"properties": { "GEOID": "25021417802" }
		},
		{
			"type": "Feature",
			"geometry": {
				"type": "Polygon",
				"coordinates": [
					[
						[-70.992, 42.2498],
						[-70.9825, 42.2481],
						[-70.9841, 42.2391],
						[-70.9799, 42.2362],
						[-70.968, 42.238],
						[-70.9654, 42.2468],
						[-70.9602, 42.2468],
						[-70.9754, 42.2537],
						[-70.9889, 42.2539],
						[-70.992, 42.2498]
					]
				]
			},
			"properties": { "GEOID": "25021417901" }
		},
		{
			"type": "Feature",
			"geometry": {
				"type": "Polygon",
				"coordinates": [
					[
						[-71.0547, 42.1851],
						[-71.0485, 42.1748],
						[-71.0351, 42.1751],
						[-71.0199, 42.1804],
						[-71.019, 42.1841],
						[-71.0191, 42.1869],
						[-71.0296, 42.1915],
						[-71.0415, 42.1936],
						[-71.0416, 42.1818],
						[-71.0547, 42.1851]
					]
				]
			},
			"properties": { "GEOID": "25021420101" }
		},
		{
			"type": "Feature",
			"geometry": {
				"type": "Polygon",
				"coordinates": [
					[
						[-71.0224, 42.1705],
						[-70.9765, 42.1683],
						[-70.9736, 42.1872],
						[-70.9858, 42.1913],
						[-70.9962, 42.1833],
						[-71.0082, 42.1868],
						[-71.0191, 42.184],
						[-71.0224, 42.1705]
					]
				]
			},
			"properties": { "GEOID": "25021419602" }
		},
		{
			"type": "Feature",
			"geometry": {
				"type": "Polygon",
				"coordinates": [
					[
						[-71.0855, 42.281],
						[-71.0753, 42.2797],
						[-71.0783, 42.2894],
						[-71.0855, 42.281]
					]
				]
			},
			"properties": { "GEOID": "25025100300" }
		},
		{
			"type": "Feature",
			"geometry": {
				"type": "Polygon",
				"coordinates": [
					[
						[-71.0786, 42.2788],
						[-71.0659, 42.2799],
						[-71.0643, 42.2857],
						[-71.0766, 42.2838],
						[-71.0753, 42.2797],
						[-71.0786, 42.2788]
					]
				]
			},
			"properties": { "GEOID": "25025100400" }
		},
		{
			"type": "Feature",
			"geometry": {
				"type": "Polygon",
				"coordinates": [
					[
						[-71.2753, 42.3997],
						[-71.2514, 42.3973],
						[-71.2392, 42.3898],
						[-71.2341, 42.4021],
						[-71.2504, 42.406],
						[-71.2577, 42.4123],
						[-71.257, 42.4211],
						[-71.2672, 42.4244],
						[-71.2739, 42.4109],
						[-71.2717, 42.4065],
						[-71.2753, 42.3997]
					]
				]
			},
			"properties": { "GEOID": "25017368102" }
		},
		{
			"type": "Feature",
			"geometry": {
				"type": "Polygon",
				"coordinates": [
					[
						[-71.6535, 42.6751],
						[-71.6452, 42.6703],
						[-71.6344, 42.6733],
						[-71.61, 42.6693],
						[-71.6095, 42.6757],
						[-71.5998, 42.6743],
						[-71.601, 42.6805],
						[-71.5964, 42.6844],
						[-71.5868, 42.6806],
						[-71.5783, 42.6724],
						[-71.5642, 42.672],
						[-71.5558, 42.6777],
						[-71.5564, 42.6896],
						[-71.5425, 42.7027],
						[-71.6518, 42.7048],
						[-71.6535, 42.6751]
					]
				]
			},
			"properties": { "GEOID": "25017327101" }
		},
		{
			"type": "Feature",
			"geometry": {
				"type": "Polygon",
				"coordinates": [
					[
						[-71.1162, 42.4075],
						[-71.1139, 42.401],
						[-71.0996, 42.3971],
						[-71.1066, 42.4023],
						[-71.1101, 42.4103],
						[-71.1162, 42.4075]
					]
				]
			},
			"properties": { "GEOID": "25017339600" }
		},
		{
			"type": "Feature",
			"geometry": {
				"type": "Polygon",
				"coordinates": [
					[
						[-70.7156, 42.0212],
						[-70.7105, 42.0173],
						[-70.7126, 42.0081],
						[-70.7093, 42.005],
						[-70.6986, 42.0067],
						[-70.6733, 42.0002],
						[-70.6663, 42.0029],
						[-70.6636, 42.0123],
						[-70.6716, 42.0246],
						[-70.6632, 42.0393],
						[-70.6504, 42.0472],
						[-70.6713, 42.0484],
						[-70.6717, 42.0394],
						[-70.6887, 42.0394],
						[-70.6952, 42.0286],
						[-70.6966, 42.0328],
						[-70.7033, 42.0341],
						[-70.7108, 42.0297],
						[-70.7156, 42.0212]
					]
				]
			},
			"properties": { "GEOID": "25023507103" }
		},
		{
			"type": "Feature",
			"geometry": {
				"type": "Polygon",
				"coordinates": [
					[
						[-71.0252, 42.1174],
						[-71.0231, 42.1084],
						[-70.9977, 42.1077],
						[-71.002, 42.1265],
						[-71.0252, 42.1174]
					]
				]
			},
			"properties": { "GEOID": "25023510100" }
		},
		{
			"type": "Feature",
			"geometry": {
				"type": "Polygon",
				"coordinates": [
					[
						[-71.023, 42.1085],
						[-71.0168, 42.094],
						[-70.9767, 42.1006],
						[-70.9809, 42.1106],
						[-70.9791, 42.1141],
						[-70.9986, 42.1116],
						[-70.9978, 42.1076],
						[-71.0045, 42.1066],
						[-71.0143, 42.11],
						[-71.023, 42.1085]
					]
				]
			},
			"properties": { "GEOID": "25023510200" }
		},
		{
			"type": "Feature",
			"geometry": {
				"type": "Polygon",
				"coordinates": [
					[
						[-70.6929, 41.9631],
						[-70.6789, 41.9499],
						[-70.663, 41.955],
						[-70.6448, 41.9687],
						[-70.6522, 41.9772],
						[-70.6821, 41.9646],
						[-70.6835, 41.9672],
						[-70.6929, 41.9631]
					]
				]
			},
			"properties": { "GEOID": "25023530300" }
		},
		{
			"type": "Feature",
			"geometry": {
				"type": "Polygon",
				"coordinates": [
					[
						[-70.6785, 41.9501],
						[-70.6672, 41.9392],
						[-70.6485, 41.9338],
						[-70.634, 41.9331],
						[-70.6189, 41.9375],
						[-70.6369, 41.9543],
						[-70.6448, 41.9687],
						[-70.663, 41.955],
						[-70.6785, 41.9501]
					]
				]
			},
			"properties": { "GEOID": "25023530500" }
		},
		{
			"type": "Feature",
			"geometry": {
				"type": "Polygon",
				"coordinates": [
					[
						[-70.8297, 41.9278],
						[-70.8155, 41.9136],
						[-70.8036, 41.8732],
						[-70.7904, 41.8781],
						[-70.7903, 41.8824],
						[-70.7835, 41.8858],
						[-70.7692, 41.889],
						[-70.7684, 41.9113],
						[-70.7507, 41.9259],
						[-70.7587, 41.9475],
						[-70.7717, 41.9461],
						[-70.8297, 41.9278]
					]
				]
			},
			"properties": { "GEOID": "25023544100" }
		}
	]
}
